H1 CPF 01  gfz 2021 06 01 12  6522 tandemx   
H2 1003001  6202 36605    2021 06 01 12 59 42 2021 06 06 00 00 42   120 1 1  0 0 0
H9
10 0 59369  35982.000000  0   -3048252.997   5763866.377   2215669.337
10 0 59369  36102.000000  0   -2726725.552   5537840.615   3049765.091
10 0 59369  36222.000000  0   -2362379.612   5208982.442   3830153.783
10 0 59369  36342.000000  0   -1963348.370   4782380.205   4543106.005
10 0 59369  36462.000000  0   -1538267.226   4264984.175   5176092.440
10 0 59369  36582.000000  0   -1096087.200   3665485.726   5718004.186
10 0 59369  36702.000000  0    -645886.695   2994162.719   6159344.079
10 0 59369  36822.000000  0    -196685.874   2262695.829   6492387.591
10 0 59369  36942.000000  0     242732.720   1483960.778   6711311.781
10 0 59369  37062.000000  0     663995.074    671798.363   6812292.047
10 0 59369  37182.000000  0    1059294.248   -159232.407   6793563.678
10 0 59369  37302.000000  0    1421534.064   -994114.194   6655451.640
10 0 59369  37422.000000  0    1744456.355  -1817642.507   6400365.727
10 0 59369  37542.000000  0    2022749.545  -2614702.140   6032761.745
10 0 59369  37662.000000  0    2252137.085  -3370546.176   5559068.749
10 0 59369  37782.000000  0    2429444.112  -4071071.802   4987581.719
10 0 59369  37902.000000  0    2552640.715  -4703087.472   4328321.886
10 0 59369  38022.000000  0    2620862.770  -5254568.052   3592865.904
10 0 59369  38142.000000  0    2634408.043  -5714891.693   2794144.539
10 0 59369  38262.000000  0    2594707.038  -6075053.337   1946214.732
10 0 59369  38382.000000  0    2504269.678  -6327847.161   1064008.119
10 0 59369  38502.000000  0    2366609.756  -6468015.514    163063.631
10 0 59369  38622.000000  0    2186148.647  -6492362.204   -740753.764
10 0 59369  38742.000000  0    1968099.444  -6399823.092  -1631543.200
10 0 59369  38862.000000  0    1718333.977  -6191492.360  -2493656.030
10 0 59369  38982.000000  0    1443237.766  -5870606.625  -3311978.327
10 0 59369  39102.000000  0    1149556.736  -5442482.441  -4072199.095
10 0 59369  39222.000000  0     844241.264  -4914416.654  -4761059.506
10 0 59369  39342.000000  0     534289.161  -4295549.825  -5366579.711
10 0 59369  39462.000000  0     226592.103  -3596697.194  -5878259.606
10 0 59369  39582.000000  0     -72211.312  -2830150.648  -6287250.792
10 0 59369  39702.000000  0    -355872.769  -2009457.022  -6586497.968
10 0 59369  39822.000000  0    -618659.506  -1149177.122  -6770849.253
10 0 59369  39942.000000  0    -855465.302   -264629.550  -6837136.019
10 0 59369  40062.000000  0   -1061905.854    628377.753  -6784220.741
10 0 59369  40182.000000  0   -1234397.679   1513822.538  -6613013.525
10 0 59369  40302.000000  0   -1370218.904   2375748.314  -6326457.922
10 0 59369  40422.000000  0   -1467551.444   3198544.893  -5929486.950
10 0 59369  40542.000000  0   -1525504.622   3967228.213  -5428947.780
10 0 59369  40662.000000  0   -1544118.783   4667712.676  -4833494.707
10 0 59369  40782.000000  0   -1524349.729   5287073.495  -4153451.174
10 0 59369  40902.000000  0   -1468033.296   5813792.324  -3400640.132
10 0 59369  41022.000000  0   -1377830.171   6237980.297  -2588186.076
10 0 59369  41142.000000  0   -1257152.561   6551575.197  -1730291.802
10 0 59369  41262.000000  0   -1110073.652   6748506.700   -841990.735
10 0 59369  41382.000000  0    -941222.074   6824824.395     61118.191
10 0 59369  41502.000000  0    -755663.240   6778786.959    963150.185
10 0 59369  41622.000000  0    -558770.825   6610906.373   1848224.109
10 0 59369  41742.000000  0    -356091.827   6323943.587   2700752.365
10 0 59369  41862.000000  0    -153208.993   5922859.125   3505722.314
10 0 59369  41982.000000  0      44395.775   5414722.126   4248965.634
10 0 59369  42102.000000  0     231473.997   4808579.469   4917414.411
10 0 59369  42222.000000  0     403137.051   4115279.663   5499332.210
10 0 59369  42342.000000  0     554971.871   3347270.422   5984514.461
10 0 59369  42462.000000  0     683143.764   2518367.387   6364464.806
10 0 59369  42582.000000  0     784483.804   1643498.770   6632537.701
10 0 59369  42702.000000  0     856560.166    738432.297   6784048.932
10 0 59369  42822.000000  0     897731.725   -180510.472   6816351.597
10 0 59369  42942.000000  0     907183.143  -1096747.218   6728880.237
10 0 59369  43062.000000  0     884940.684  -1993734.180   6523160.978
10 0 59369  43182.000000  0     831868.565  -2855264.808   6202787.092
10 0 59369  43302.000000  0     749645.704  -3665764.839   5773359.686
10 0 59369  43422.000000  0     640723.332  -4410575.428   5242392.965
10 0 59369  43542.000000  0     508265.715  -5076221.341   4619189.235
10 0 59369  43662.000000  0     356073.782  -5650662.335   3914683.045
10 0 59369  43782.000000  0     188492.150  -6123521.619   3141252.905
10 0 59369  43902.000000  0      10302.238  -6486283.900   2312504.315
10 0 59369  44022.000000  0    -173396.327  -6732457.703   1443028.030
10 0 59369  44142.000000  0    -357312.739  -6857700.544    548139.610
10 0 59369  44262.000000  0    -536098.109  -6859902.147   -356399.323
10 0 59369  44382.000000  0    -704480.376  -6739220.138  -1254668.865
10 0 59369  44502.000000  0    -857397.074  -6498069.433  -2130879.651
10 0 59369  44622.000000  0    -990123.275  -6141067.697  -2969656.930
10 0 59369  44742.000000  0   -1098391.812  -5674937.773  -3756315.448
10 0 59369  44862.000000  0   -1178502.432  -5108368.858  -4477118.606
10 0 59369  44982.000000  0   -1227417.044  -4451841.271  -5119515.376
10 0 59369  45102.000000  0   -1242839.470  -3717421.351  -5672352.066
10 0 59369  45222.000000  0   -1223277.925  -2918530.911  -6126056.926
10 0 59369  45342.000000  0   -1168089.250  -2069695.910  -6472795.281
10 0 59369  45462.000000  0   -1077504.499  -1186279.862  -6706592.956
10 0 59369  45582.000000  0    -952635.973   -284207.696  -6823428.645
10 0 59369  45702.000000  0    -795465.154    620316.775  -6821295.215
10 0 59369  45822.000000  0    -608811.285   1511094.477  -6700229.511
10 0 59369  45942.000000  0    -396282.374   2372213.392  -6462311.711
10 0 59369  46062.000000  0    -162208.816   3188325.921  -6111634.595
10 0 59369  46182.000000  0      88440.931   3944919.486  -5654241.849
10 0 59369  46302.000000  0     350160.569   4628573.888  -5098033.412
10 0 59369  46422.000000  0     617019.921   5227202.333  -4452641.027
10 0 59369  46542.000000  0     882791.616   5730272.883  -3729272.417
10 0 59369  46662.000000  0    1141088.048   6129003.708  -2940525.347
10 0 59369  46782.000000  0    1385505.571   6416528.368  -2100174.608
10 0 59369  46902.000000  0    1609773.043   6588027.040  -1222933.821
10 0 59369  47022.000000  0    1807901.220   6640818.981   -324195.854
10 0 59369  47142.000000  0    1974328.729   6574412.229    580242.839
10 0 59369  47262.000000  0    2104060.405   6390509.573   1474466.877
10 0 59369  47382.000000  0    2192795.256   6092971.025   2342729.966
10 0 59369  47502.000000  0    2237040.431   5687733.007   3169740.085
10 0 59369  47622.000000  0    2234208.671   5182687.075   3940936.389
10 0 59369  47742.000000  0    2182695.487   4587519.928   4642752.043
10 0 59369  47862.000000  0    2081934.834   3913517.159   5262856.990
10 0 59369  47982.000000  0    1932431.566   3173338.331   5790371.328
10 0 59369  48102.000000  0    1735772.380   2380773.024   6216051.880
10 0 59369  48222.000000  0    1494613.422   1550478.063   6532450.107
10 0 59369  48342.000000  0    1212644.925    697701.355   6734036.284
10 0 59369  48462.000000  0     894534.258   -161999.477   6817289.087
10 0 59369  48582.000000  0     545848.527  -1013039.513   6780754.330
10 0 59369  48702.000000  0     172956.895  -1840089.517   6625069.850
10 0 59369  48822.000000  0    -217085.962  -2628352.032   6352954.902
10 0 59369  48942.000000  0    -616672.820  -3363827.409   5969164.664
10 0 59369  49062.000000  0   -1017789.762  -4033563.101   5480409.828
10 0 59369  49182.000000  0   -1412173.848  -4625883.954   4895246.575
10 0 59369  49302.000000  0   -1791482.270  -5130602.916   4223935.303
10 0 59369  49422.000000  0   -2147468.117  -5539206.374   3478265.390
10 0 59369  49542.000000  0   -2472158.550  -5845006.900   2671348.709
10 0 59369  49662.000000  0   -2758030.835  -6043259.650   1817387.605
10 0 59369  49782.000000  0   -2998182.228  -6131241.608    931421.172
10 0 59369  49902.000000  0   -3186489.610  -6108290.819     29053.970
10 0 59369  50022.000000  0   -3317754.660  -5975804.182   -873826.946
10 0 59369  50142.000000  0   -3387830.963  -5737193.490  -1761340.905
10 0 59369  50262.000000  0   -3393729.734  -5397800.443  -2617901.442
10 0 59369  50382.000000  0   -3333701.518  -4964773.367  -3428496.694
10 0 59369  50502.000000  0   -3207291.330  -4446909.002  -4178955.704
10 0 59369  50622.000000  0   -3015366.774  -3854465.236  -4856194.726
10 0 59369  50742.000000  0   -2760119.690  -3198950.033  -5448440.323
10 0 59369  50862.000000  0   -2445041.888  -2492891.293  -5945425.896
10 0 59369  50982.000000  0   -2074875.425  -1749593.332  -6338559.714
10 0 59369  51102.000000  0   -1655538.020   -982884.390  -6621062.475
10 0 59369  51222.000000  0   -1194026.612   -206860.557  -6788072.154
10 0 59369  51342.000000  0    -698301.508    564368.702  -6836717.496
10 0 59369  51462.000000  0    -177151.275   1316930.336  -6766162.072
10 0 59369  51582.000000  0     359958.855   2037430.521  -6577616.670
10 0 59369  51702.000000  0     903053.591   2713187.294  -6274322.849
10 0 59369  51822.000000  0    1441829.457   3332451.092  -5861503.907
10 0 59369  51942.000000  0    1965845.754   3884608.284  -5346283.302
10 0 59369  52062.000000  0    2464723.731   4360364.738  -4737573.150
10 0 59369  52182.000000  0    2928350.540   4751907.880  -4045931.690
10 0 59369  52302.000000  0    3347083.704   5053042.872  -3283389.793
10 0 59369  52422.000000  0    3711952.699   5259299.498  -2463249.536
99
